TIANMU-1 07             
1 57399U 23101A   26065.57454230  .00008352  00000+0  29795-3 0  9991
2 57399  97.2728 118.5929 0004609 142.4105 217.7458 15.29118809145964
STARLINK-32754          
1 62527U 25004S   26068.46297704  .00030763  00000+0  11224-2 0  9994
2 62527  42.9981 221.1752 0001779 292.6160  67.4503 15.27589937 65470
